$$SOE
2459580.500000000, A.D. 2022-Jan-01 00:00:00.0000, -5.058629363576698E+07, 2.283166751515538E+08, -5.267504970885249E+07,
2459587.500000000, A.D. 2022-Jan-08 00:00:00.0000, -6.690285206347870E+07, 2.278598962686017E+08, -5.607075457513540E+07,
2459594.500000000, A.D. 2022-Jan-15 00:00:00.0000, -8.299642153990476E+07, 2.266418415877651E+08, -5.927922891564387E+07,
2459601.500000000, A.D. 2022-Jan-22 00:00:00.0000, -9.882807006873009E+07, 2.247071236515244E+08, -6.230035658154245E+07,
2459608.500000000, A.D. 2022-Jan-29 00:00:00.0000, -1.143648737952938E+08, 2.221008607246817E+08, -6.513539528213419E+07,
2459615.500000000, A.D. 2022-Feb-05 00:00:00.0000, -1.295794760700250E+08, 2.188679209254912E+08, -6.778674326267205E+07,
2459622.500000000, A.D. 2022-Feb-12 00:00:00.0000, -1.444495893001162E+08, 2.150523214607198E+08, -7.025772319917315E+07,
2459629.500000000, A.D. 2022-Feb-19 00:00:00.0000, -1.589574732092157E+08, 2.106967709245085E+08, -7.255238725747055E+07,
2459636.500000000, A.D. 2022-Feb-26 00:00:00.0000, -1.730894152940139E+08, 2.058423361079345E+08, -7.467534520530759E+07,
2459643.500000000, A.D. 2022-Mar-05 00:00:00.0000, -1.868352308077976E+08, 2.005282137257019E+08, -7.663161587776946E+07,
2459650.500000000, A.D. 2022-Mar-12 00:00:00.0000, -2.001877936556290E+08, 1.947915884688990E+08, -7.842650108698048E+07,
2459657.500000000, A.D. 2022-Mar-19 00:00:00.0000, -2.131426050290670E+08, 1.886675603233946E+08, -8.006548030959509E+07,
2459664.500000000, A.D. 2022-Mar-26 00:00:00.0000, -2.256974030671132E+08, 1.821891260202256E+08, -8.155412408118308E+07,
2459671.500000000, A.D. 2022-Apr-02 00:00:00.0000, -2.378518141731373E+08, 1.753872015921881E+08, -8.289802387567331E+07,
2459678.500000000, A.D. 2022-Apr-09 00:00:00.0000, -2.496070446094060E+08, 1.682906752090642E+08, -8.410273627025257E+07,
2459685.500000000, A.D. 2022-Apr-16 00:00:00.0000, -2.609656097389355E+08, 1.609264820989101E+08, -8.517373926681893E+07,
2459692.500000000, A.D. 2022-Apr-23 00:00:00.0000, -2.719310992279944E+08, 1.533196955591356E+08, -8.611639863621715E+07,
2459699.500000000, A.D. 2022-Apr-30 00:00:00.0000, -2.825079767938330E+08, 1.454936262558994E+08, -8.693594257941523E+07,
2459706.500000000, A.D. 2022-May-07 00:00:00.0000, -2.927014080562630E+08, 1.374699235614169E+08, -8.763744364278810E+07,
2459713.500000000, A.D. 2022-May-14 00:00:00.0000, -3.025171117990171E+08, 1.292686787312414E+08, -8.822580646483643E+07,
2459720.500000000, A.D. 2022-May-21 00:00:00.0000, -3.119612335602547E+08, 1.209085282902300E+08, -8.870576000452249E+07,
2459727.500000000, A.D. 2022-May-28 00:00:00.0000, -3.210402391628582E+08, 1.124067549612738E+08, -8.908185336335087E+07,
2459734.500000000, A.D. 2022-Jun-04 00:00:00.0000, -3.297608253035404E+08, 1.037793846465501E+08, -8.935845448111980E+07,
2459741.500000000, A.D. 2022-Jun-11 00:00:00.0000, -3.381298447273143E+08, 9.504127869270393E+07, -8.953975107982793E+07,
2459748.500000000, A.D. 2022-Jun-18 00:00:00.0000, -3.461542438894897E+08, 8.620622099380676E+07, -8.962975333450331E+07,
2459755.500000000, A.D. 2022-Jun-25 00:00:00.0000, -3.538410112700856E+08, 7.728699967385085E+07, -8.963229784990454E+07,
2459762.500000000, A.D. 2022-Jul-02 00:00:00.0000, -3.611971346335657E+08, 6.829548323076457E+07, -8.955105261560813E+07,
2459769.500000000, A.D. 2022-Jul-09 00:00:00.0000, -3.682295654804385E+08, 5.924269139107051E+07, -8.938952268314812E+07,
2459776.500000000, A.D. 2022-Jul-16 00:00:00.0000, -3.749451895697483E+08, 5.013886191682294E+07, -8.915105624974059E+07,
2459783.500000000, A.D. 2022-Jul-23 00:00:00.0000, -3.813508047010126E+08, 4.099351365916022E+07, -8.883885076517774E+07,
2459790.500000000, A.D. 2022-Jul-30 00:00:00.0000, -3.874531048087053E+08, 3.181550275920415E+07, -8.845595920708576E+07,
2459797.500000000, A.D. 2022-Aug-06 00:00:00.0000, -3.932586660314600E+08, 2.261307292228471E+07, -8.800529669449553E+07,
2459804.500000000, A.D. 2022-Aug-13 00:00:00.0000, -3.987739349450985E+08, 1.339390280453322E+07, -8.748964705459833E+07,
2459811.500000000, A.D. 2022-Aug-20 00:00:00.0000, -4.040052199910637E+08, 4.165150290359288E+06, -8.691166917686258E+07,
2459818.500000000, A.D. 2022-Aug-27 00:00:00.0000, -4.089586855781198E+08, -5.066506788260918E+06, -8.627390317498121E+07,
2459825.500000000, A.D. 2022-Sep-03 00:00:00.0000, -4.136403482239017E+08, -1.429483333207050E+07, -8.557877635574706E+07,
2459832.500000000, A.D. 2022-Sep-10 00:00:00.0000, -4.180560743186781E+08, -2.351400277415729E+07, -8.482860897811806E+07,
2459839.500000000, A.D. 2022-Sep-17 00:00:00.0000, -4.222115792045940E+08, -3.271856575902428E+07, -8.402561979034311E+07,
2459846.500000000, A.D. 2022-Sep-24 00:00:00.0000, -4.261124272756136E+08, -4.190342152536575E+07, -8.317193134630616E+07,
2459853.500000000, A.D. 2022-Oct-01 00:00:00.0000, -4.297640326599505E+08, -5.106379180323501E+07, -8.226957512115605E+07,
2459860.500000000, A.D. 2022-Oct-08 00:00:00.0000, -4.331716599094193E+08, -6.019519650705487E+07, -8.132049642051671E+07,
2459867.500000000, A.D. 2022-Oct-15 00:00:00.0000, -4.363404254844319E+08, -6.929342984453101E+07, -8.032655890197262E+07,
2459874.500000000, A.D. 2022-Oct-22 00:00:00.0000, -4.392753020961409E+08, -7.835453836078335E+07, -7.928954865126041E+07,
2459881.500000000, A.D. 2022-Oct-29 00:00:00.0000, -4.419811233095340E+08, -8.737480336067155E+07, -7.821117826198089E+07,
2459888.500000000, A.D. 2022-Nov-05 00:00:00.0000, -4.444625862264812E+08, -9.635072482879533E+07, -7.709309089634793E+07,
2459895.500000000, A.D. 2022-Nov-12 00:00:00.0000, -4.467242541444685E+08, -1.052790054519241E+08, -7.593686405246931E+07,
2459902.500000000, A.D. 2022-Nov-19 00:00:00.0000, -4.487705598535480E+08, -1.141565355812335E+08, -7.474401306013229E+07,
2459909.500000000, A.D. 2022-Nov-26 00:00:00.0000, -4.506058092629544E+08, -1.229803794243656E+08, -7.351599437183854E+07,
2459916.500000000, A.D. 2022-Dec-03 00:00:00.0000, -4.522341851525922E+08, -1.317477623800611E+08, -7.225420867496690E+07,
2459923.500000000, A.D. 2022-Dec-10 00:00:00.0000, -4.536597509710231E+08, -1.404560594064963E+08, -7.096000383685745E+07,
2459930.500000000, A.D. 2022-Dec-17 00:00:00.0000, -4.548864546278253E+08, -1.491027843664308E+08, -6.963467769598244E+07,
2459937.500000000, A.D. 2022-Dec-24 00:00:00.0000, -4.559181321485475E+08, -1.576855803406112E+08, -6.827948072330385E+07,
2459944.500000000, A.D. 2022-Dec-31 00:00:00.0000, -4.567585108165856E+08, -1.662022107341280E+08, -6.689561858629641E+07,
2459951.500000000, A.D. 2023-Jan-07 00:00:00.0000, -4.574112116646889E+08, -1.746505501514659E+08, -6.548425455637996E+07,
2459958.500000000, A.D. 2023-Jan-14 00:00:00.0000, -4.578797532713764E+08, -1.830285744872278E+08, -6.404651154655470E+07,
2459965.500000000, A.D. 2023-Jan-21 00:00:00.0000, -4.581675574985615E+08, -1.913343533544786E+08, -6.258347398713345E+07,
2459972.500000000, A.D. 2023-Jan-28 00:00:00.0000, -4.582779534971730E+08, -1.995660449995983E+08, -6.109618989949545E+07,
2459979.500000000, A.D. 2023-Feb-04 00:00:00.0000, -4.582141801848698E+08, -2.077218906322066E+08, -5.958567290796433E+07,
2459986.500000000, A.D. 2023-Feb-11 00:00:00.0000, -4.579793889868390E+08, -2.158002083239616E+08, -5.805290404702801E+07,
2459993.500000000, A.D. 2023-Feb-18 00:00:00.0000, -4.575766469002019E+08, -2.237993872638549E+08, -5.649883343135983E+07,
2460000.500000000, A.D. 2023-Feb-25 00:00:00.0000, -4.570089396183363E+08, -2.317178824994534E+08, -5.492438183181439E+07,
2460007.500000000, A.D. 2023-Mar-04 00:00:00.0000, -4.562791746131283E+08, -2.395542101153418E+08, -5.333044217069052E+07,
2460014.500000000, A.D. 2023-Mar-11 00:00:00.0000, -4.553901841472183E+08, -2.473069428205438E+08, -5.171788094383354E+07,
2460021.500000000, A.D. 2023-Mar-18 00:00:00.0000, -4.543447281702057E+08, -2.549747059689223E+08, -5.008753958254163E+07,
2460028.500000000, A.D. 2023-Mar-25 00:00:00.0000, -4.531454968968940E+08, -2.625561740363755E+08, -4.844023578206751E+07,
2460035.500000000, A.D. 2023-Apr-01 00:00:00.0000, -4.517951126447348E+08, -2.700500671398641E+08, -4.677676480749328E+07,
2460042.500000000, A.D. 2023-Apr-08 00:00:00.0000, -4.502961315475276E+08, -2.774551463533584E+08, -4.509790062412737E+07,
2460049.500000000, A.D. 2023-Apr-15 00:00:00.0000, -4.486510474840376E+08, -2.847702089088449E+08, -4.340439673199621E+07,
2460056.500000000, A.D. 2023-Apr-22 00:00:00.0000, -4.468622964148592E+08, -2.919940863184577E+08, -4.169698712333465E+07,
2460063.500000000, A.D. 2023-Apr-29 00:00:00.0000, -4.449322583957120E+08, -2.991256431499878E+08, -3.997638743319164E+07,
2460070.500000000, A.D. 2023-May-06 00:00:00.0000, -4.428632590299652E+08, -3.061637746602777E+08, -3.824329597915794E+07,
2460077.500000000, A.D. 2023-May-13 00:00:00.0000, -4.406575713392746E+08, -3.131074041671261E+08, -3.649839467657959E+07,
2460084.500000000, A.D. 2023-May-20 00:00:00.0000, -4.383174178207631E+08, -3.199554806394967E+08, -3.474234989387578E+07,
2460091.500000000, A.D. 2023-May-27 00:00:00.0000, -4.358449725005440E+08, -3.267069765251285E+08, -3.297581327107418E+07,
2460098.500000000, A.D. 2023-Jun-03 00:00:00.0000, -4.332423629295173E+08, -3.333608857795599E+08, -3.119942250747553E+07,
2460105.500000000, A.D. 2023-Jun-10 00:00:00.0000, -4.305116721007987E+08, -3.399162221005459E+08, -2.941380212424459E+07,
2460112.500000000, A.D. 2023-Jun-17 00:00:00.0000, -4.276549402022475E+08, -3.463720174187406E+08, -2.761956421729733E+07,
2460119.500000000, A.D. 2023-Jun-24 00:00:00.0000, -4.246741658861856E+08, -3.527273205807440E+08, -2.581730922747383E+07,
2460126.500000000, A.D. 2023-Jul-01 00:00:00.0000, -4.215713068052124E+08, -3.589811953891879E+08, -2.400762668567267E+07,
2460133.500000000, A.D. 2023-Jul-08 00:00:00.0000, -4.183482810903265E+08, -3.651327171714274E+08, -2.219109571429586E+07,
2460140.500000000, A.D. 2023-Jul-15 00:00:00.0000, -4.150069710507880E+08, -3.711809707011833E+08, -2.036828540116937E+07,
$$EOE